2025-226A               
1 65938U 25226A   25305.65541812  .00009001  00000+0  52849-3 0  9995
2 65938  97.6670  19.8498 0014764 205.9325 154.1167 15.11865767  3268
2025-226B               
1 65939U 25226B   25305.61328220  .00006461  00000+0  40276-3 0  9996
2 65939  97.6631  19.7407 0020775 209.9966 150.0075 15.09717570  3245
2025-226C               
1 65940U 25226C   25305.65700954  .00009060  00000+0  53360-3 0  9996
2 65940  97.6579  19.8242 0014719 203.8131 156.2420 15.11754044  3257
YOTSUBA-KULOVER         
1 65941U 98067XN  25305.55120278  .00048767  00000+0  76336-3 0  9999
2 65941  51.6329 345.9990 0002613 350.0726  10.0213 15.53246603  3440
BOTAN                   
1 65942U 98067XP  25305.54523315  .00066684  00000+0  10070-2 0  9998
2 65942  51.6331 345.9591 0004625   5.6465 354.4577 15.54095782  3448
E-KAGAKU-1              
1 65943U 98067XQ  25305.48643289  .00048933  00000+0  76576-3 0  9996
2 65943  51.6344 346.3156 0004407 355.0444   5.0502 15.53246328  3431
2025-226D               
1 65944U 25226D   25305.57331052  .00951937  00000+0  24088-1 0  9992
2 65944  97.6599  20.1016 0020719 273.1838  86.7035 15.36819486  3256
SHIYAN-31               
1 65945U 25227A   25305.61466356  .00008907  00000+0  40788-3 0  9992
2 65945  80.0035  76.5270 0011516 205.7334 154.3321 15.20342403  2928
CZ-2D R/B               
1 65946U 25227B   25305.59219102  .00011012  00000+0  40666-3 0  9991
2 65946  80.1540  76.8484 0021364 332.2189  27.7899 15.27426133  2931
KUIPER-00101            
1 65947U 25228A   25305.57386675  .00064173  00000+0  18702-2 0  9992
2 65947  51.8796 218.8940 0006456 195.8309 164.2476 15.34756363  4093
KUIPER-00113            
1 65948U 25228B   25305.57071242  .00036911  00000+0  10741-2 0  9998
2 65948  51.8799 218.8737 0006497 198.4098 161.6653 15.35052595  4095
KUIPER-00117            
1 65949U 25228C   25305.57122347  .00033089  00000+0  96611-3 0  9996
2 65949  51.8798 218.8765 0006234 197.7661 162.3108 15.35003386  4090
