CCSDS_OMM_VERS = 2.0
CREATION_DATE  = 
ORIGINATOR     = 

OBJECT_NAME    = 2025-226A
OBJECT_ID      = 2025-226A
CENTER_NAME    = EARTH
REF_FRAME      = TEME
TIME_SYSTEM    = UTC
MEAN_ELEMENT_THEORY = SGP/SGP4

EPOCH          = 2025-11-01T15:43:48.125568
MEAN_MOTION    = 15.11865767
ECCENTRICITY   = .00147641
INCLINATION    = 97.6670
RA_OF_ASC_NODE = 19.8498
ARG_OF_PERICENTER = 205.9325
MEAN_ANOMALY   = 154.1167

EPHEMERIS_TYPE = 0
CLASSIFICATION_TYPE = U
NORAD_CAT_ID   = 65938
ELEMENT_SET_NO = 999
REV_AT_EPOCH   = 326
BSTAR          = .52848816E-3
MEAN_MOTION_DOT = .9001E-4
MEAN_MOTION_DDOT = 0

CCSDS_OMM_VERS = 2.0
CREATION_DATE  = 
ORIGINATOR     = 

OBJECT_NAME    = 2025-226B
OBJECT_ID      = 2025-226B
CENTER_NAME    = EARTH
REF_FRAME      = TEME
TIME_SYSTEM    = UTC
MEAN_ELEMENT_THEORY = SGP/SGP4

EPOCH          = 2025-11-01T14:43:07.582080
MEAN_MOTION    = 15.09717570
ECCENTRICITY   = .00207752
INCLINATION    = 97.6631
RA_OF_ASC_NODE = 19.7407
ARG_OF_PERICENTER = 209.9966
MEAN_ANOMALY   = 150.0075

EPHEMERIS_TYPE = 0
CLASSIFICATION_TYPE = U
NORAD_CAT_ID   = 65939
ELEMENT_SET_NO = 999
REV_AT_EPOCH   = 324
BSTAR          = .40275998E-3
MEAN_MOTION_DOT = .6461E-4
MEAN_MOTION_DDOT = 0

CCSDS_OMM_VERS = 2.0
CREATION_DATE  = 
ORIGINATOR     = 

OBJECT_NAME    = 2025-226C
OBJECT_ID      = 2025-226C
CENTER_NAME    = EARTH
REF_FRAME      = TEME
TIME_SYSTEM    = UTC
MEAN_ELEMENT_THEORY = SGP/SGP4

EPOCH          = 2025-11-01T15:46:05.624256
MEAN_MOTION    = 15.11754044
ECCENTRICITY   = .00147197
INCLINATION    = 97.6579
RA_OF_ASC_NODE = 19.8242
ARG_OF_PERICENTER = 203.8131
MEAN_ANOMALY   = 156.2420

EPHEMERIS_TYPE = 0
CLASSIFICATION_TYPE = U
NORAD_CAT_ID   = 65940
ELEMENT_SET_NO = 999
REV_AT_EPOCH   = 325
BSTAR          = .53359735E-3
MEAN_MOTION_DOT = .906E-4
MEAN_MOTION_DDOT = 0

CCSDS_OMM_VERS = 2.0
CREATION_DATE  = 
ORIGINATOR     = 

OBJECT_NAME    = YOTSUBA-KULOVER
OBJECT_ID      = 1998-067XN
CENTER_NAME    = EARTH
REF_FRAME      = TEME
TIME_SYSTEM    = UTC
MEAN_ELEMENT_THEORY = SGP/SGP4

EPOCH          = 2025-11-01T13:13:43.920192
MEAN_MOTION    = 15.53246603
ECCENTRICITY   = .00026134
INCLINATION    = 51.6329
RA_OF_ASC_NODE = 345.9990
ARG_OF_PERICENTER = 350.0726
MEAN_ANOMALY   = 10.0213

EPHEMERIS_TYPE = 0
CLASSIFICATION_TYPE = U
NORAD_CAT_ID   = 65941
ELEMENT_SET_NO = 999
REV_AT_EPOCH   = 344
BSTAR          = .76336489E-3
MEAN_MOTION_DOT = .48767E-3
MEAN_MOTION_DDOT = 0

CCSDS_OMM_VERS = 2.0
CREATION_DATE  = 
ORIGINATOR     = 

OBJECT_NAME    = BOTAN
OBJECT_ID      = 1998-067XP
CENTER_NAME    = EARTH
REF_FRAME      = TEME
TIME_SYSTEM    = UTC
MEAN_ELEMENT_THEORY = SGP/SGP4

EPOCH          = 2025-11-01T13:05:08.144160
MEAN_MOTION    = 15.54095782
ECCENTRICITY   = .00046258
INCLINATION    = 51.6331
RA_OF_ASC_NODE = 345.9591
ARG_OF_PERICENTER = 5.6465
MEAN_ANOMALY   = 354.4577

EPHEMERIS_TYPE = 0
CLASSIFICATION_TYPE = U
NORAD_CAT_ID   = 65942
ELEMENT_SET_NO = 999
REV_AT_EPOCH   = 344
BSTAR          = .10070176E-2
MEAN_MOTION_DOT = .66684E-3
MEAN_MOTION_DDOT = 0

CCSDS_OMM_VERS = 2.0
CREATION_DATE  = 
ORIGINATOR     = 

OBJECT_NAME    = E-KAGAKU-1
OBJECT_ID      = 1998-067XQ
CENTER_NAME    = EARTH
REF_FRAME      = TEME
TIME_SYSTEM    = UTC
MEAN_ELEMENT_THEORY = SGP/SGP4

EPOCH          = 2025-11-01T11:40:27.801696
MEAN_MOTION    = 15.53246328
ECCENTRICITY   = .00044075
INCLINATION    = 51.6344
RA_OF_ASC_NODE = 346.3156
ARG_OF_PERICENTER = 355.0444
MEAN_ANOMALY   = 5.0502

EPHEMERIS_TYPE = 0
CLASSIFICATION_TYPE = U
NORAD_CAT_ID   = 65943
ELEMENT_SET_NO = 999
REV_AT_EPOCH   = 343
BSTAR          = .76576249E-3
MEAN_MOTION_DOT = .48933E-3
MEAN_MOTION_DDOT = 0

CCSDS_OMM_VERS = 2.0
CREATION_DATE  = 
ORIGINATOR     = 

OBJECT_NAME    = 2025-226D
OBJECT_ID      = 2025-226D
CENTER_NAME    = EARTH
REF_FRAME      = TEME
TIME_SYSTEM    = UTC
MEAN_ELEMENT_THEORY = SGP/SGP4

EPOCH          = 2025-11-01T13:45:34.028928
MEAN_MOTION    = 15.36819486
ECCENTRICITY   = .00207193
INCLINATION    = 97.6599
RA_OF_ASC_NODE = 20.1016
ARG_OF_PERICENTER = 273.1838
MEAN_ANOMALY   = 86.7035

EPHEMERIS_TYPE = 0
CLASSIFICATION_TYPE = U
NORAD_CAT_ID   = 65944
ELEMENT_SET_NO = 999
REV_AT_EPOCH   = 325
BSTAR          = .24087617E-1
MEAN_MOTION_DOT = .951937E-2
MEAN_MOTION_DDOT = 0

CCSDS_OMM_VERS = 2.0
CREATION_DATE  = 
ORIGINATOR     = 

OBJECT_NAME    = SHIYAN-31
OBJECT_ID      = 2025-227A
CENTER_NAME    = EARTH
REF_FRAME      = TEME
TIME_SYSTEM    = UTC
MEAN_ELEMENT_THEORY = SGP/SGP4

EPOCH          = 2025-11-01T14:45:06.931584
MEAN_MOTION    = 15.20342403
ECCENTRICITY   = .00115167
INCLINATION    = 80.0035
RA_OF_ASC_NODE = 76.5270
ARG_OF_PERICENTER = 205.7334
MEAN_ANOMALY   = 154.3321

EPHEMERIS_TYPE = 0
CLASSIFICATION_TYPE = U
NORAD_CAT_ID   = 65945
ELEMENT_SET_NO = 999
REV_AT_EPOCH   = 292
BSTAR          = .40787695E-3
MEAN_MOTION_DOT = .8907E-4
MEAN_MOTION_DDOT = 0

CCSDS_OMM_VERS = 2.0
CREATION_DATE  = 
ORIGINATOR     = 

OBJECT_NAME    = CZ-2D R/B
OBJECT_ID      = 2025-227B
CENTER_NAME    = EARTH
REF_FRAME      = TEME
TIME_SYSTEM    = UTC
MEAN_ELEMENT_THEORY = SGP/SGP4

EPOCH          = 2025-11-01T14:12:45.304128
MEAN_MOTION    = 15.27426133
ECCENTRICITY   = .00213645
INCLINATION    = 80.1540
RA_OF_ASC_NODE = 76.8484
ARG_OF_PERICENTER = 332.2189
MEAN_ANOMALY   = 27.7899

EPHEMERIS_TYPE = 0
CLASSIFICATION_TYPE = U
NORAD_CAT_ID   = 65946
ELEMENT_SET_NO = 999
REV_AT_EPOCH   = 293
BSTAR          = .40666081E-3
MEAN_MOTION_DOT = .11012E-3
MEAN_MOTION_DDOT = 0

CCSDS_OMM_VERS = 2.0
CREATION_DATE  = 
ORIGINATOR     = 

OBJECT_NAME    = KUIPER-00101
OBJECT_ID      = 2025-228A
CENTER_NAME    = EARTH
REF_FRAME      = TEME
TIME_SYSTEM    = UTC
MEAN_ELEMENT_THEORY = SGP/SGP4

EPOCH          = 2025-11-01T13:46:22.087200
MEAN_MOTION    = 15.34756363
ECCENTRICITY   = .00064569
INCLINATION    = 51.8796
RA_OF_ASC_NODE = 218.8940
ARG_OF_PERICENTER = 195.8309
MEAN_ANOMALY   = 164.2476

EPHEMERIS_TYPE = 0
CLASSIFICATION_TYPE = U
NORAD_CAT_ID   = 65947
ELEMENT_SET_NO = 999
REV_AT_EPOCH   = 409
BSTAR          = .18702462E-2
MEAN_MOTION_DOT = .64173E-3
MEAN_MOTION_DDOT = 0

CCSDS_OMM_VERS = 2.0
CREATION_DATE  = 
ORIGINATOR     = 

OBJECT_NAME    = KUIPER-00113
OBJECT_ID      = 2025-228B
CENTER_NAME    = EARTH
REF_FRAME      = TEME
TIME_SYSTEM    = UTC
MEAN_ELEMENT_THEORY = SGP/SGP4

EPOCH          = 2025-11-01T13:41:49.553088
MEAN_MOTION    = 15.35052595
ECCENTRICITY   = .00064977
INCLINATION    = 51.8799
RA_OF_ASC_NODE = 218.8737
ARG_OF_PERICENTER = 198.4098
MEAN_ANOMALY   = 161.6653

EPHEMERIS_TYPE = 0
CLASSIFICATION_TYPE = U
NORAD_CAT_ID   = 65948
ELEMENT_SET_NO = 999
REV_AT_EPOCH   = 409
BSTAR          = .10741469E-2
MEAN_MOTION_DOT = .36911E-3
MEAN_MOTION_DDOT = 0

CCSDS_OMM_VERS = 2.0
CREATION_DATE  = 
ORIGINATOR     = 

OBJECT_NAME    = KUIPER-00117
OBJECT_ID      = 2025-228C
CENTER_NAME    = EARTH
REF_FRAME      = TEME
TIME_SYSTEM    = UTC
MEAN_ELEMENT_THEORY = SGP/SGP4

EPOCH          = 2025-11-01T13:42:33.707808
MEAN_MOTION    = 15.35003386
ECCENTRICITY   = .00062349
INCLINATION    = 51.8798
RA_OF_ASC_NODE = 218.8765
ARG_OF_PERICENTER = 197.7661
MEAN_ANOMALY   = 162.3108

EPHEMERIS_TYPE = 0
CLASSIFICATION_TYPE = U
NORAD_CAT_ID   = 65949
ELEMENT_SET_NO = 999
REV_AT_EPOCH   = 409
BSTAR          = .96611435E-3
MEAN_MOTION_DOT = .33089E-3
MEAN_MOTION_DDOT = 0

